INTELSAT 21 (IS-21)     
1 38749U 12045A   26157.90637940 -.00000271  00000+0  00000+0 0  9991
2 38749   0.0429  86.3239 0002049 357.0101  80.2957  1.00272802 50425
INTELSAT 23 (IS-23)     
1 38867U 12057A   26157.90733274 -.00000271  00000+0  00000+0 0  9992
2 38867   0.0106 324.2395 0000581 121.7203  82.9866  1.00276044 49858
FM-6                    
1 39360U 13058A   26157.68087418 -.00000004  00000+0  00000+0 0  9994
2 39360   0.0137  48.0496 0003585 117.6602 218.1964  1.00279606 45965
INTELSAT 30 (IS-30)     
1 40271U 14062A   26157.89901271 -.00000137  00000+0  00000+0 0  9995
2 40271   0.0239  44.6709 0000990 353.6139  85.5907  1.00268996  6694
DIRECTV 14              
1 40333U 14078B   26157.89814603 -.00000111  00000+0  00000+0 0  9995
2 40333   0.0093 341.5253 0000448 196.0145 301.8662  1.00270332 41944
DIRECTV 15              
1 40663U 15026A   26157.89745270 -.00000089  00000+0  00000+0 0  9992
2 40663   0.0176   0.9568 0000392 253.9119 220.6518  1.00274312 40364
SKY MEXICO-1            
1 40664U 15026B   26157.90221939 -.00000221  00000+0  00000+0 0  9994
2 40664   0.0142  44.0653 0002264  49.0281  48.2253  1.00272032 40352
INTELSAT 34 (IS-34)     
1 40874U 15039A   26157.83557159 -.00000272  00000+0  00000+0 0  9995
2 40874   0.0092 329.5798 0000378  35.2406 135.7489  1.00272854 39533
INTELSAT 31 (IS-31)     
1 41581U 16035A   26157.89901271 -.00000137  00000+0  00000+0 0  9992
2 41581   0.0183 260.4811 0000837 334.1344 249.3013  1.00271829 36589
INTELSAT 36 (IS-36)     
1 41747U 16053A   26157.93135686 -.00000011  00000+0  00000+0 0  9991
2 41747   0.0104 354.9461 0001665 344.3966 319.7879  1.00272235 35852
INTELSAT 32E (IS-32E)   
1 41945U 17007B   26157.90923941 -.00000255  00000+0  00000+0 0  9997
2 41945   0.0171 329.5205 0000294   2.5884 207.3647  1.00269547 34125
INTELSAT 35E (IS-35E)   
1 42818U 17041A   26157.91097275 -.00000224  00000+0  00000+0 0  9994
2 42818   0.0157  51.3290 0001877  23.2956 114.1701  1.00273179 32716
INTELSAT 37E (IS-37E)   
1 42950U 17059A   26157.91429648 -.00000127  00000+0  00000+0 0  9995
2 42950   0.0144  49.3720 0002544  43.1891 113.9262  1.00271598 31963
AZERSPACE 2 (IS-38)     
1 43632U 18074A   26157.92352067  .00000150  00000+0  00000+0 0  9997
2 43632   0.0180 313.3546 0001554 117.8026 201.7613  1.00271545 28346
HORIZONS-3E             
1 43633U 18074B   26157.80870479 -.00000017  00000+0  00000+0 0  9990
2 43633   0.0165 151.8957 0000828 142.2453  61.2147  1.00270465 28239
AT&T T-16               
1 44333U 19034A   26157.89788603 -.00000102  00000+0  00000+0 0  9996
2 44333   0.0219  63.6437 0000529 227.1482 186.9095  1.00271152 25534
INTELSAT 39 (IS-39)     
1 44476U 19049B   26157.63121132  .00000048  00000+0  00000+0 0  9998
2 44476   0.0173 316.2772 0000278 327.6995 260.2628  1.00266909 25022
GALAXY 30 (G-30)        
1 46114U 20056C   26157.75049201  .00000050  00000+0  00000+0 0  9991
2 46114   0.0179 349.6741 0002313  84.4288 326.2293  1.00272626 21187
GALAXY 33 (G-33)        
1 54026U 22128A   26157.74893200  .00000092  00000+0  00000+0 0  9995
2 54026   0.0227  50.5194 0001937  25.2878 315.9862  1.00272234 13634
GALAXY 34 (G-34)        
1 54027U 22128B   26156.96541106  .00000071  00000+0  00000+0 0  9991
2 54027   0.0081  33.4234 0002001  61.9178  17.6089  1.00274021 13803
GALAXY 31 (G-31)        
1 54243U 22153A   26157.68000750  .00000027  00000+0  00000+0 0  9995
2 54243   0.0235  83.5934 0001411 353.2314 302.0763  1.00272283  7025
GALAXY 32 (G-32)        
1 54244U 22153B   26157.82855155 -.00000161  00000+0  00000+0 0  9999
2 54244   0.0152  28.1464 0002326   9.1367  65.2446  1.00271985 13041
GALAXY 35 (G-35)        
1 54741U 22170A   26157.89935937 -.00000149  00000+0  00000+0 0  9990
2 54741   0.0166  67.4239 0002170  11.8866  46.6782  1.00271917 12797
GALAXY 36 (G-36)        
1 54742U 22170B   26157.54370994 -.00000172  00000+0  00000+0 0  9995
2 54742   0.0047 223.4787 0002779 219.0961 279.1320  1.00271658 12660
GALAXY 37 (G-37)        
1 57493U 23112A   26157.89257081  .00000062  00000+0  00000+0 0  9994
2 57493   0.0193 326.9943 0002087 109.4172  13.2245  1.00271562 10440
