OBJECT_NAME,OBJECT_ID,EPOCH,MEAN_MOTION,ECCENTRICITY,INCLINATION,RA_OF_ASC_NODE,ARG_OF_PERICENTER,MEAN_ANOMALY,EPHEMERIS_TYPE,CLASSIFICATION_TYPE,NORAD_CAT_ID,ELEMENT_SET_NO,REV_AT_EPOCH,BSTAR,MEAN_MOTION_DOT,MEAN_MOTION_DDOT
INTELSAT 21 (IS-21),2012-045A,2026-06-06T21:45:11.180160,1.00272802,.00020493,0.0429,86.3239,357.0101,80.2957,0,U,38749,999,5042,0,-.271E-5,0
INTELSAT 23 (IS-23),2012-057A,2026-06-06T21:46:33.548736,1.00276044,.0000581,0.0106,324.2395,121.7203,82.9866,0,U,38867,999,4985,0,-.271E-5,0
FM-6,2013-058A,2026-06-06T16:20:27.529152,1.00279606,.00035858,0.0137,48.0496,117.6602,218.1964,0,U,39360,999,4596,0,-.4E-7,0
INTELSAT 30 (IS-30),2014-062A,2026-06-06T21:34:34.698144,1.00268996,.00009905,0.0239,44.6709,353.6139,85.5907,0,U,40271,999,669,0,-.137E-5,0
DIRECTV 14,2014-078B,2026-06-06T21:33:19.816992,1.00270332,.00004487,0.0093,341.5253,196.0145,301.8662,0,U,40333,999,4194,0,-.111E-5,0
DIRECTV 15,2015-026A,2026-06-06T21:32:19.913280,1.00274312,.00003929,0.0176,0.9568,253.9119,220.6518,0,U,40663,999,4036,0,-.89E-6,0
SKY MEXICO-1,2015-026B,2026-06-06T21:39:11.755296,1.00272032,.00022646,0.0142,44.0653,49.0281,48.2253,0,U,40664,999,4035,0,-.221E-5,0
INTELSAT 34 (IS-34),2015-039A,2026-06-06T20:03:13.385376,1.00272854,.00003788,0.0092,329.5798,35.2406,135.7489,0,U,40874,999,3953,0,-.272E-5,0
INTELSAT 31 (IS-31),2016-035A,2026-06-06T21:34:34.698144,1.00271829,.00008371,0.0183,260.4811,334.1344,249.3013,0,U,41581,999,3658,0,-.137E-5,0
INTELSAT 36 (IS-36),2016-053A,2026-06-06T22:21:09.232704,1.00272235,.00016659,0.0104,354.9461,344.3966,319.7879,0,U,41747,999,3585,0,-.11E-6,0
INTELSAT 32E (IS-32E),2017-007B,2026-06-06T21:49:18.285024,1.00269547,.00002944,0.0171,329.5205,2.5884,207.3647,0,U,41945,999,3412,0,-.255E-5,0
INTELSAT 35E (IS-35E),2017-041A,2026-06-06T21:51:48.045600,1.00273179,.00018773,0.0157,51.3290,23.2956,114.1701,0,U,42818,999,3271,0,-.224E-5,0
INTELSAT 37E (IS-37E),2017-059A,2026-06-06T21:56:35.215872,1.00271598,.00025446,0.0144,49.3720,43.1891,113.9262,0,U,42950,999,3196,0,-.127E-5,0
AZERSPACE 2 (IS-38),2018-074A,2026-06-06T22:09:52.185888,1.00271545,.00015548,0.0180,313.3546,117.8026,201.7613,0,U,43632,999,2834,0,.15E-5,0
HORIZONS-3E,2018-074B,2026-06-06T19:24:32.093856,1.00270465,.0000828,0.0165,151.8957,142.2453,61.2147,0,U,43633,999,2823,0,-.17E-6,0
AT&T T-16,2019-034A,2026-06-06T21:32:57.352992,1.00271152,.0000529,0.0219,63.6437,227.1482,186.9095,0,U,44333,999,2553,0,-.102E-5,0
INTELSAT 39 (IS-39),2019-049B,2026-06-06T15:08:56.658048,1.00266909,.0000278,0.0173,316.2772,327.6995,260.2628,0,U,44476,999,2502,0,.48E-6,0
GALAXY 30 (G-30),2020-056C,2026-06-06T18:00:42.509664,1.00272626,.00023131,0.0179,349.6741,84.4288,326.2293,0,U,46114,999,2118,0,.5E-6,0
GALAXY 33 (G-33),2022-128A,2026-06-06T17:58:27.724800,1.00272234,.00019371,0.0227,50.5194,25.2878,315.9862,0,U,54026,999,1363,0,.92E-6,0
GALAXY 34 (G-34),2022-128B,2026-06-05T23:10:11.515584,1.00274021,.00020011,0.0081,33.4234,61.9178,17.6089,0,U,54027,999,1380,0,.71E-6,0
GALAXY 31 (G-31),2022-153A,2026-06-06T16:19:12.648000,1.00272283,.00014112,0.0235,83.5934,353.2314,302.0763,0,U,54243,999,702,0,.27E-6,0
GALAXY 32 (G-32),2022-153B,2026-06-06T19:53:06.853920,1.00271985,.0002326,0.0152,28.1464,9.1367,65.2446,0,U,54244,999,1304,0,-.161E-5,0
GALAXY 35 (G-35),2022-170A,2026-06-06T21:35:04.649568,1.00271917,.00021705,0.0166,67.4239,11.8866,46.6782,0,U,54741,999,1279,0,-.149E-5,0
GALAXY 36 (G-36),2022-170B,2026-06-06T13:02:56.538816,1.00271658,.0002779,0.0047,223.4787,219.0961,279.1320,0,U,54742,999,1266,0,-.172E-5,0
GALAXY 37 (G-37),2023-112A,2026-06-06T21:25:18.117984,1.00271562,.00020874,0.0193,326.9943,109.4172,13.2245,0,U,57493,999,1044,0,.62E-6,0
